{"type": "FeatureCollection", "features": [{"type": "Feature", "properties": {"norad_id": 2807, "name": "OPS 7218 (TRANSIT 16)", "group": "nnss", "lat": 1.423788476950856, "lon": 174.05623899255366, "alt_km": 1064.3539664727032, "timestamp": "2025-12-11T07:02:23.998706+00:00", "meta": {"OBJECT_NAME": "OPS 7218 (TRANSIT 16)", "OBJECT_ID": "1967-048A", "EPOCH": "2025-12-10T18:34:20.767872", "MEAN_MOTION": 13.50721655, "ECCENTRICITY": 0.00218751, "INCLINATION": 89.6732, "RA_OF_ASC_NODE": 354.0815, "ARG_OF_PERICENTER": 119.3253, "MEAN_ANOMALY": 54.3895, "EPHEMERIS_TYPE": 0, "CLASSIFICATION_TYPE": "U", "NORAD_CAT_ID": 2807, "ELEMENT_SET_NO": 999, "REV_AT_EPOCH": 88249, "BSTAR": 0.00020314284, "MEAN_MOTION_DOT": 1.41e-06, "MEAN_MOTION_DDOT": 0}, "tle": {"line1": "1 02807U 67048A   25344.77385148  .00000141  00000+0  20314-3 0  9991", "line2": "2 02807  89.6732 354.0815 0021875 119.3253  54.3895 13.50721655882497"}}, "geometry": {"type": "Point", "coordinates": [174.05623899255366, 1.423788476950856]}}, {"type": "Feature", "properties": {"norad_id": 2965, "name": "OPS 4947 (TRANSIT 17)", "group": "nnss", "lat": -48.507820533228646, "lon": -154.60509074046317, "alt_km": 1032.7718966337516, "timestamp": "2025-12-11T07:02:23.998728+00:00", "meta": {"OBJECT_NAME": "OPS 4947 (TRANSIT 17)", "OBJECT_ID": "1967-092A", "EPOCH": "2025-12-10T21:54:04.522176", "MEAN_MOTION": 13.53452762, "ECCENTRICITY": 0.00460783, "INCLINATION": 89.2497, "RA_OF_ASC_NODE": 24.575, "ARG_OF_PERICENTER": 239.9876, "MEAN_ANOMALY": 294.3166, "EPHEMERIS_TYPE": 0, "CLASSIFICATION_TYPE": "U", "NORAD_CAT_ID": 2965, "ELEMENT_SET_NO": 999, "REV_AT_EPOCH": 87072, "BSTAR": 0.00023079491, "MEAN_MOTION_DOT": 1.67e-06, "MEAN_MOTION_DDOT": 0}, "tle": {"line1": "1 02965U 67092A   25344.91255234  .00000167  00000+0  23079-3 0  9992", "line2": "2 02965  89.2497  24.5750 0046078 239.9876 294.3166 13.53452762870728"}}, "geometry": {"type": "Point", "coordinates": [-154.60509074046317, -48.507820533228646]}}, {"type": "Feature", "properties": {"norad_id": 3133, "name": "OPS 7034 (TRANSIT 18)", "group": "nnss", "lat": 26.963012800980326, "lon": -86.37949722811369, "alt_km": 1110.94686576377, "timestamp": "2025-12-11T07:02:23.998743+00:00", "meta": {"OBJECT_NAME": "OPS 7034 (TRANSIT 18)", "OBJECT_ID": "1968-012A", "EPOCH": "2025-12-10T18:37:36.266880", "MEAN_MOTION": 13.51564951, "ECCENTRICITY": 0.00736582, "INCLINATION": 90.0278, "RA_OF_ASC_NODE": 273.6332, "ARG_OF_PERICENTER": 174.8207, "MEAN_ANOMALY": 217.6112, "EPHEMERIS_TYPE": 0, "CLASSIFICATION_TYPE": "U", "NORAD_CAT_ID": 3133, "ELEMENT_SET_NO": 999, "REV_AT_EPOCH": 56892, "BSTAR": 0.00025359784, "MEAN_MOTION_DOT": 1.78e-06, "MEAN_MOTION_DDOT": 0}, "tle": {"line1": "1 03133U 68012A   25344.77611420  .00000178  00000+0  25360-3 0  9997", "line2": "2 03133  90.0278 273.6332 0073658 174.8207 217.6112 13.51564951568922"}}, "geometry": {"type": "Point", "coordinates": [-86.37949722811369, 26.963012800980326]}}, {"type": "Feature", "properties": {"norad_id": 4507, "name": "NNSS 19 (TRANSIT 19)", "group": "nnss", "lat": 1.941751609535478, "lon": -125.46750293019763, "alt_km": 1013.4954258939879, "timestamp": "2025-12-11T07:02:23.998755+00:00", "meta": {"OBJECT_NAME": "NNSS 19 (TRANSIT 19)", "OBJECT_ID": "1970-067A", "EPOCH": "2025-12-10T06:09:04.713984", "MEAN_MOTION": 13.51314209, "ECCENTRICITY": 0.0170695, "INCLINATION": 90.0056, "RA_OF_ASC_NODE": 234.5321, "ARG_OF_PERICENTER": 300.6377, "MEAN_ANOMALY": 57.8039, "EPHEMERIS_TYPE": 0, "CLASSIFICATION_TYPE": "U", "NORAD_CAT_ID": 4507, "ELEMENT_SET_NO": 999, "REV_AT_EPOCH": 72188, "BSTAR": 0.00026981, "MEAN_MOTION_DOT": 1.99e-06, "MEAN_MOTION_DDOT": 0}, "tle": {"line1": "1 04507U 70067A   25344.25630456  .00000199  00000+0  26981-3 0  9992", "line2": "2 04507  90.0056 234.5321 0170695 300.6377  57.8039 13.51314209721889"}}, "geometry": {"type": "Point", "coordinates": [-125.46750293019763, 1.941751609535478]}}, {"type": "Feature", "properties": {"norad_id": 6909, "name": "NNSS 20 (TRANSIT 20)", "group": "nnss", "lat": -33.37953988890198, "lon": -105.01900968295446, "alt_km": 1049.5172212751522, "timestamp": "2025-12-11T07:02:23.998766+00:00", "meta": {"OBJECT_NAME": "NNSS 20 (TRANSIT 20)", "OBJECT_ID": "1973-081A", "EPOCH": "2025-12-10T17:11:41.064000", "MEAN_MOTION": 13.71432763, "ECCENTRICITY": 0.01566118, "INCLINATION": 89.8563, "RA_OF_ASC_NODE": 255.0844, "ARG_OF_PERICENTER": 84.3061, "MEAN_ANOMALY": 277.5936, "EPHEMERIS_TYPE": 0, "CLASSIFICATION_TYPE": "U", "NORAD_CAT_ID": 6909, "ELEMENT_SET_NO": 999, "REV_AT_EPOCH": 80333, "BSTAR": 0.00033403601, "MEAN_MOTION_DOT": 3.4e-06, "MEAN_MOTION_DDOT": 0}, "tle": {"line1": "1 06909U 73081A   25344.71644750  .00000340  00000+0  33404-3 0  9998", "line2": "2 06909  89.8563 255.0844 0156611  84.3061 277.5936 13.71432763803338"}}, "geometry": {"type": "Point", "coordinates": [-105.01900968295446, -33.37953988890198]}}, {"type": "Feature", "properties": {"norad_id": 10457, "name": "TRANSAT", "group": "nnss", "lat": 17.48982927523494, "lon": 78.75914661284972, "alt_km": 1095.3335366500905, "timestamp": "2025-12-11T07:02:23.998777+00:00", "meta": {"OBJECT_NAME": "TRANSAT", "OBJECT_ID": "1977-106A", "EPOCH": "2025-12-10T17:29:48.058944", "MEAN_MOTION": 13.48943195, "ECCENTRICITY": 0.00252032, "INCLINATION": 89.6482, "RA_OF_ASC_NODE": 78.6682, "ARG_OF_PERICENTER": 195.3496, "MEAN_ANOMALY": 323.5194, "EPHEMERIS_TYPE": 0, "CLASSIFICATION_TYPE": "U", "NORAD_CAT_ID": 10457, "ELEMENT_SET_NO": 999, "REV_AT_EPOCH": 36716, "BSTAR": 0.00019661222, "MEAN_MOTION_DOT": 1.33e-06, "MEAN_MOTION_DDOT": 0}, "tle": {"line1": "1 10457U 77106A   25344.72902846  .00000133  00000+0  19661-3 0  9996", "line2": "2 10457  89.6482  78.6682 0025203 195.3496 323.5194 13.48943195367169"}}, "geometry": {"type": "Point", "coordinates": [78.75914661284972, 17.48982927523494]}}, {"type": "Feature", "properties": {"norad_id": 12458, "name": "NOVA 1", "group": "nnss", "lat": 52.393139594625616, "lon": 91.59731409394614, "alt_km": 1160.4852467764958, "timestamp": "2025-12-11T07:02:23.998788+00:00", "meta": {"OBJECT_NAME": "NOVA 1", "OBJECT_ID": "1981-044A", "EPOCH": "2025-12-10T18:50:58.356960", "MEAN_MOTION": 13.23278241, "ECCENTRICITY": 0.00158733, "INCLINATION": 89.8524, "RA_OF_ASC_NODE": 91.4128, "ARG_OF_PERICENTER": 108.7936, "MEAN_ANOMALY": 45.5089, "EPHEMERIS_TYPE": 0, "CLASSIFICATION_TYPE": "U", "NORAD_CAT_ID": 12458, "ELEMENT_SET_NO": 999, "REV_AT_EPOCH": 15160, "BSTAR": 0.00017052083, "MEAN_MOTION_DOT": 8.1e-07, "MEAN_MOTION_DDOT": 0}, "tle": {"line1": "1 12458U 81044A   25344.78539765  .00000081  00000+0  17052-3 0  9991", "line2": "2 12458  89.8524  91.4128 0015873 108.7936  45.5089 13.23278241151608"}}, "geometry": {"type": "Point", "coordinates": [91.59731409394614, 52.393139594625616]}}, {"type": "Feature", "properties": {"norad_id": 15362, "name": "NOVA 3", "group": "nnss", "lat": -73.7963651013406, "lon": 80.93921363907421, "alt_km": 1165.5793791114875, "timestamp": "2025-12-11T07:02:23.998799+00:00", "meta": {"OBJECT_NAME": "NOVA 3", "OBJECT_ID": "1984-110A", "EPOCH": "2025-12-10T17:39:44.936064", "MEAN_MOTION": 13.23044354, "ECCENTRICITY": 0.00306283, "INCLINATION": 90.1224, "RA_OF_ASC_NODE": 80.5112, "ARG_OF_PERICENTER": 337.6446, "MEAN_ANOMALY": 175.5409, "EPHEMERIS_TYPE": 0, "CLASSIFICATION_TYPE": "U", "NORAD_CAT_ID": 15362, "ELEMENT_SET_NO": 999, "REV_AT_EPOCH": 98672, "BSTAR": 0.00024680094, "MEAN_MOTION_DOT": 1.12e-06, "MEAN_MOTION_DDOT": 0}, "tle": {"line1": "1 15362U 84110A   25344.73593676  .00000112  00000+0  24680-3 0  9991", "line2": "2 15362  90.1224  80.5112 0030628 337.6446 175.5409 13.23044354986728"}}, "geometry": {"type": "Point", "coordinates": [80.93921363907421, -73.7963651013406]}}, {"type": "Feature", "properties": {"norad_id": 15935, "name": "OSCAR 30", "group": "nnss", "lat": -61.55089579168188, "lon": 100.12782796781869, "alt_km": 1240.0526100770276, "timestamp": "2025-12-11T07:02:23.998809+00:00", "meta": {"OBJECT_NAME": "OSCAR 30", "OBJECT_ID": "1985-066A", "EPOCH": "2025-12-10T19:31:00.802272", "MEAN_MOTION": 13.36077983, "ECCENTRICITY": 0.01694212, "INCLINATION": 90.1649, "RA_OF_ASC_NODE": 99.8155, "ARG_OF_PERICENTER": 89.2809, "MEAN_ANOMALY": 62.2144, "EPHEMERIS_TYPE": 0, "CLASSIFICATION_TYPE": "U", "NORAD_CAT_ID": 15935, "ELEMENT_SET_NO": 999, "REV_AT_EPOCH": 96427, "BSTAR": 0.00025912259, "MEAN_MOTION_DOT": 1.54e-06, "MEAN_MOTION_DDOT": 0}, "tle": {"line1": "1 15935U 85066A   25344.81320373  .00000154  00000+0  25912-3 0  9994", "line2": "2 15935  90.1649  99.8155 0169421  89.2809  62.2144 13.36077983964274"}}, "geometry": {"type": "Point", "coordinates": [100.12782796781869, -61.55089579168188]}}, {"type": "Feature", "properties": {"norad_id": 15936, "name": "OSCAR 24", "group": "nnss", "lat": 13.5552862194222, "lon": 92.23663872061793, "alt_km": 1102.6632948195702, "timestamp": "2025-12-11T07:02:23.998820+00:00", "meta": {"OBJECT_NAME": "OSCAR 24", "OBJECT_ID": "1985-066B", "EPOCH": "2025-12-10T13:03:08.404128", "MEAN_MOTION": 13.35935362, "ECCENTRICITY": 0.0170487, "INCLINATION": 90.1789, "RA_OF_ASC_NODE": 92.2666, "ARG_OF_PERICENTER": 96.4685, "MEAN_ANOMALY": 276.6807, "EPHEMERIS_TYPE": 0, "CLASSIFICATION_TYPE": "U", "NORAD_CAT_ID": 15936, "ELEMENT_SET_NO": 999, "REV_AT_EPOCH": 96614, "BSTAR": 0.00022344, "MEAN_MOTION_DOT": 1.34e-06, "MEAN_MOTION_DDOT": 0}, "tle": {"line1": "1 15936U 85066B   25344.54384727  .00000134  00000+0  22344-3 0  9992", "line2": "2 15936  90.1789  92.2666 0170487  96.4685 276.6807 13.35935362966148"}}, "geometry": {"type": "Point", "coordinates": [92.23663872061793, 13.5552862194222]}}]}